NORAD_CAT_ID,OBJECT_NAME,OBJECT_TYPE,EPOCH,MEAN_MOTION,ECCENTRICITY,INCLINATION,RA_OF_ASC_NODE,ARG_OF_PERICENTER,MEAN_ANOMALY,BSTAR,MEAN_MOTION_DOT,MEAN_MOTION_DDOT,TLE_LINE0,TLE_LINE1,TLE_LINE2,SEMIMAJOR_AXIS,PERIOD,APOGEE,PERIGEE,DECAYED
55665.0,STARLINK-5474,PAYLOAD,2024-03-05 14:01:28,14.98319531,0.0003164,69.9993,215.3562,272.5641,87.5155,-0.00010193,-1.309e-05,0.0,0 STARLINK-5474,1 55665U 23021AP  24065.58435687 -.00001309  00000-0 -10193-3 0  9990,2 55665  69.9993 215.3562 0003164 272.5641  87.5155 14.98319531 59323,6950.225,96.108,574.289,569.891,0.0
55665.0,STARLINK-5474,PAYLOAD,2024-03-05 20:26:00,14.98322261,0.0003052,69.9997,214.6838,270.0342,90.0468,-8.7357e-05,-1.135e-05,0.0,0 STARLINK-5474,1 55665U 23021AP  24065.85139565 -.00001135  00000-0 -87357-4 0  9990,2 55665  69.9997 214.6838 0003052 270.0342  90.0468 14.98322261 59063,6950.217,96.107,574.203,569.961,0.0
55665.0,STARLINK-5474,PAYLOAD,2024-03-06 14:03:29,14.9832382,0.0002918,70.0,212.832,266.0648,94.0178,-0.00018116,-2.254e-05,0.0,0 STARLINK-5474,1 55665U 23021AP  24066.58575995 -.00002254  00000-0 -18116-3 0  9991,2 55665  70.0000 212.8320 0002918 266.0648  94.0178 14.98323820 59470,6950.212,96.107,574.105,570.049,0.0
55665.0,STARLINK-5474,PAYLOAD,2024-03-07 02:52:33,14.98326398,0.0003033,69.9999,211.4855,269.2493,90.8318,-3.505e-05,-5.11e-06,0.0,0 STARLINK-5474,1 55665U 23021AP  24067.11983649 -.00000511  00000-0 -35050-4 0  9991,2 55665  69.9999 211.4855 0003033 269.2493  90.8318 14.98326398 59253,6950.204,96.107,574.177,569.961,0.0
55665.0,STARLINK-5474,PAYLOAD,2024-03-07 14:05:30,14.98323979,0.0003005,70.0,210.3074,267.36,92.7215,0.00018242,2.084e-05,0.0,0 STARLINK-5474,1 55665U 23021AP  24067.58715376  .00002084  00000-0  18242-3 0  9990,2 55665  70.0000 210.3074 0003005 267.3600  92.7215 14.98323979 59628,6950.212,96.107,574.165,569.988,0.0
55665.0,STARLINK-5474,PAYLOAD,2024-03-08 12:31:23,14.98325588,0.0002985,70.0,207.9505,268.1855,91.8962,9.5946e-05,1.052e-05,0.0,0 STARLINK-5474,1 55665U 23021AP  24068.52179649  .00001052  00000-0  95946-4 0  9993,2 55665  70.0000 207.9505 0002985 268.1855  91.8962 14.98325588 59465,6950.207,96.107,574.146,569.997,0.0
55665.0,STARLINK-5474,PAYLOAD,2024-03-09 02:56:35,14.98338504,0.0002958,70.0,206.435,268.3409,91.7411,-0.00011189,-1.428e-05,0.0,0 STARLINK-5474,1 55665U 23021AP  24069.12263315 -.00001428  00000-0 -11189-3 0  9999,2 55665  70.0000 206.4350 0002958 268.3409  91.7411 14.98338504 59554,6950.167,96.106,574.087,569.976,0.0
55665.0,STARLINK-5474,PAYLOAD,2024-03-09 12:33:23,14.98334574,0.0002988,69.9998,205.425,268.9231,91.1586,-8.7516e-06,-1.97e-06,0.0,0 STARLINK-5474,1 55665U 23021AP  24069.52319297 -.00000197  00000-0 -87516-5 0  9995,2 55665  69.9998 205.4250 0002988 268.9231  91.1586 14.98334574 59917,6950.179,96.107,574.12,569.967,0.0
55665.0,STARLINK-5474,PAYLOAD,2024-03-10 12:35:24,14.9833059,0.0002965,69.9997,202.9002,269.7552,90.3267,-1.4674e-05,-2.68e-06,0.0,0 STARLINK-5474,1 55665U 23021AP  24070.52459323 -.00000268  00000-0 -14674-4 0  9995,2 55665  69.9997 202.9002 0002965 269.7552  90.3267 14.98330590 59767,6950.191,96.107,574.117,569.995,0.0
55665.0,STARLINK-5474,PAYLOAD,2024-03-10 18:59:57,14.98329599,0.0002998,69.9997,202.2271,270.0064,90.0751,-2.5666e-05,-3.99e-06,0.0,0 STARLINK-5474,1 55665U 23021AP  24070.79163406 -.00000399  00000-0 -25666-4 0  9996,2 55665  69.9997 202.2271 0002998 270.0064  90.0751 14.98329599 60109,6950.194,96.107,574.143,569.975,0.0
55665.0,STARLINK-5474,PAYLOAD,2024-03-11 12:37:25,14.98333152,0.0003058,69.9998,200.3758,269.8408,90.2401,2.0097e-05,1.47e-06,0.0,0 STARLINK-5474,1 55665U 23021AP  24071.52598919  .00000147  00000-0  20097-4 0  9991,2 55665  69.9998 200.3758 0003058 269.8408  90.2401 14.98333152 59916,6950.183,96.107,574.174,569.923,0.0
55665.0,STARLINK-5474,PAYLOAD,2024-03-11 19:01:57,14.98338741,0.0002962,69.9999,199.7028,268.4148,91.6671,6.9887e-05,7.41e-06,0.0,0 STARLINK-5474,1 55665U 23021AP  24071.79302312  .00000741  00000-0  69887-4 0  9990,2 55665  69.9999 199.7028 0002962 268.4148  91.6671 14.98338741 59954,6950.166,96.106,574.089,569.972,0.0
55665.0,STARLINK-5474,PAYLOAD,2024-03-12 11:03:21,14.98286635,0.0003071,69.9999,198.0197,267.0596,93.0212,-0.00046589,-5.641e-05,0.0,0 STARLINK-5474,1 55665U 23021AP  24072.46066787 -.00005641  00000-0 -46589-3 0  9997,2 55665  69.9999 198.0197 0003071 267.0596  93.0212 14.98286635 60051,6950.327,96.11,574.326,570.058,0.0
55665.0,STARLINK-5474,PAYLOAD,2024-03-12 19:04:02,14.98283365,0.0002928,70.0,197.1774,267.4877,92.5946,-0.00045105,-5.464e-05,0.0,0 STARLINK-5474,1 55665U 23021AP  24072.79447801 -.00005464  00000-0 -45105-3 0  9999,2 55665  70.0000 197.1774 0002928 267.4877  92.5946 14.98283365 60408,6950.337,96.11,574.237,570.167,0.0
55665.0,STARLINK-5474,PAYLOAD,2024-03-13 01:28:33,14.98312071,0.0004099,69.9998,196.5039,269.466,90.603,-0.00016138,-2.017e-05,0.0,0 STARLINK-5474,1 55665U 23021AP  24073.06149318 -.00002017  00000-0 -16138-3 0  9997,2 55665  69.9998 196.5039 0004099 269.4660  90.6030 14.98312071 60142,6950.248,96.108,574.962,569.264,0.0
55665.0,STARLINK-5474,PAYLOAD,2024-03-13 11:05:20,14.98335668,0.0003075,70.0003,195.4945,273.3058,86.775,3.6667e-05,3.45e-06,0.0,0 STARLINK-5474,1 55665U 23021AP  24073.46203864  .00000345  00000-0  36667-4 0  9998,2 55665  70.0003 195.4945 0003075 273.3058  86.7750 14.98335668 60203,6950.175,96.107,574.178,569.903,0.0
55665.0,STARLINK-5474,PAYLOAD,2024-03-13 14:17:35,14.98337141,0.0003018,70.0002,195.1584,263.1063,96.9753,8.2279e-05,8.89e-06,0.0,0 STARLINK-5474,1 55665U 23021AP  24073.59555511  .00000889  00000-0  82279-4 0  9994,2 55665  70.0002 195.1584 0003018 263.1063  96.9753 14.98337141 60527,6950.171,96.107,574.133,569.938,0.0
55665.0,STARLINK-5474,PAYLOAD,2024-03-13 17:29:51,14.98339677,0.0002898,70.0001,194.822,263.853,96.2299,0.00010628,1.176e-05,0.0,0 STARLINK-5474,1 55665U 23021AP  24073.72907283  .00001176  00000-0  10628-3 0  9994,2 55665  70.0001 194.8220 0002898 263.8530  96.2299 14.98339677 60546,6950.163,96.106,574.042,570.014,0.0
55665.0,STARLINK-5474,PAYLOAD,2024-03-14 17:31:51,14.98346619,0.0003503,69.9997,192.2972,274.9505,85.1254,0.00023675,2.734e-05,0.0,0 STARLINK-5474,1 55665U 23021AP  24074.73045873  .00002734  00000-0  23675-3 0  9991,2 55665  69.9997 192.2972 0003503 274.9505  85.1254 14.98346619 60397,6950.141,96.106,574.441,569.572,0.0
55665.0,STARLINK-5474,PAYLOAD,2024-03-15 11:09:21,14.98334563,0.000348,69.9998,190.4459,273.5203,86.5558,-0.00011129,-1.421e-05,0.0,0 STARLINK-5474,1 55665U 23021AP  24075.46483719 -.00001421  00000-0 -11129-3 0  9992,2 55665  69.9998 190.4459 0003480 273.5203  86.5558 14.98334563 60502,6950.179,96.107,574.462,569.625,0.0
55665.0,STARLINK-5474,PAYLOAD,2024-03-16 12:47:30,14.98341786,0.0003393,70.0005,187.7542,270.5441,89.533,-0.0001453,-1.827e-05,0.0,0 STARLINK-5474,1 55665U 23021AP  24076.53298697 -.00001827  00000-0 -14530-3 0  9999,2 55665  70.0005 187.7542 0003393 270.5441  89.5330 14.98341786 60663,6950.156,96.106,574.38,569.663,0.0
55665.0,STARLINK-5474,PAYLOAD,2024-03-16 14:23:38,14.98342307,0.0003106,70.0005,187.5855,264.5149,95.5656,-0.00014266,-1.795e-05,0.0,0 STARLINK-5474,1 55665U 23021AP  24076.59974595 -.00001795  00000-0 -14266-3 0  9993,2 55665  70.0005 187.5855 0003106 264.5149  95.5656 14.98342307 60970,6950.155,96.106,574.179,569.861,0.0
55665.0,STARLINK-5474,PAYLOAD,2024-03-16 17:35:53,14.98343464,0.0002992,70.0006,187.2485,261.3069,98.7751,-0.00010343,-1.327e-05,0.0,0 STARLINK-5474,1 55665U 23021AP  24076.73326302 -.00001327  00000-0 -10343-3 0  9999,2 55665  70.0006 187.2485 0002992 261.3069  98.7751 14.98343464 60993,6950.151,96.106,574.096,569.937,0.0
55665.0,STARLINK-5474,PAYLOAD,2024-03-17 12:49:30,14.98329096,0.0002971,70.001,185.2285,263.0083,97.0739,4.309e-05,4.21e-06,0.0,0 STARLINK-5474,1 55665U 23021AP  24077.53438597  .00000421  00000-0  43090-4 0  9996,2 55665  70.0010 185.2285 0002971 263.0083  97.0739 14.98329096 60810,6950.196,96.107,574.126,569.996,0.0
55665.0,STARLINK-5474,PAYLOAD,2024-03-17 14:25:38,14.98333193,0.000278,70.0013,185.0605,260.9597,99.1247,-4.1287e-05,-5.86e-06,0.0,0 STARLINK-5474,1 55665U 23021AP  24077.60114563 -.00000586  00000-0 -41287-4 0  9998,2 55665  70.0013 185.0605 0002780 260.9597  99.1247 14.98333193 61126,6950.183,96.107,573.98,570.116,0.0
55665.0,STARLINK-5474,PAYLOAD,2024-03-17 16:01:47,14.98330232,0.0002998,70.0012,184.8925,263.7379,96.3439,4.5587e-05,4.51e-06,0.0,0 STARLINK-5474,1 55665U 23021AP  24077.66790512  .00000451  00000-0  45587-4 0  9994,2 55665  70.0012 184.8925 0002998 263.7379  96.3439 14.98330232 61131,6950.192,96.107,574.141,569.974,0.0
55665.0,STARLINK-5474,PAYLOAD,2024-03-18 11:15:23,14.98332399,0.0002892,70.0013,182.8726,256.7851,103.2985,4.6665e-06,-3.7e-07,0.0,0 STARLINK-5474,1 55665U 23021AP  24078.46902327 -.00000037  00000-0  46665-5 0  9992,2 55665  70.0013 182.8726 0002892 256.7851 103.2985 14.98332399 61252,6950.185,96.107,574.06,570.04,0.0
55665.0,STARLINK-5474,PAYLOAD,2024-03-19 12:53:32,14.98334288,0.000301,70.0014,180.1802,263.0044,97.0773,2.6296e-05,2.21e-06,0.0,0 STARLINK-5474,1 55665U 23021AP  24079.53717879  .00000221  00000-0  26296-4 0  9998,2 55665  70.0014 180.1802 0003010 263.0044  97.0773 14.98334288 61116,6950.18,96.107,574.137,569.953,0.0
55665.0,STARLINK-5474,PAYLOAD,2024-03-20 09:43:18,14.98322178,0.0003264,70.0004,177.9913,271.3983,88.6802,-0.00010069,-1.294e-05,0.0,0 STARLINK-5474,1 55665U 23021AP  24080.40506963 -.00001294  00000-0 -10069-3 0  9999,2 55665  70.0004 177.9913 0003264 271.3983  88.6802 14.98322178 61245,6950.217,96.108,574.351,569.814,0.0
55665.0,STARLINK-5474,PAYLOAD,2024-03-20 12:55:34,14.98320398,0.0003378,70.0001,177.6543,273.2586,86.8187,-0.00011313,-1.442e-05,0.0,0 STARLINK-5474,1 55665U 23021AP  24080.53859182 -.00001442  00000-0 -11313-3 0  9995,2 55665  70.0001 177.6543 0003378 273.2586  86.8187 14.98320398 61567,6950.223,96.108,574.435,569.74,0.0
